{
  "norad_id": 47353,
  "name": "STARLINK-2045",
  "history": [
    {
      "epoch": "2026-04-16T11:48:33.247008Z",
      "apogee_km": 471.4957271474832,
      "perigee_km": 469.9944521934267,
      "latitude_deg": -3.0679064870917555e-06,
      "longitude_deg": 163.22768128405227,
      "height_km": 471.36718414522136,
      "semi_major_axis_km": 6848.882089670455,
      "eccentricity": 0.0001096,
      "inclination_deg": 53.1604,
      "raan_deg": 185.0052,
      "arg_perigee_deg": 68.3486,
      "mean_anomaly_deg": 291.7632,
      "mean_motion_rev_day": 15.31698291
    },
    {
      "epoch": "2026-04-17T22:15:40.870368Z",
      "apogee_km": 471.4429928635582,
      "perigee_km": 469.98446161268566,
      "latitude_deg": 9.465883141533199e-06,
      "longitude_deg": -1.6480695378619965,
      "height_km": 471.4398301268389,
      "semi_major_axis_km": 6848.850727238122,
      "eccentricity": 0.00010648,
      "inclination_deg": 53.1612,
      "raan_deg": 178.3261,
      "arg_perigee_deg": 76.2763,
      "mean_anomaly_deg": 283.8357,
      "mean_motion_rev_day": 15.31708812
    },
    {
      "epoch": "2026-04-18T12:21:19.850976Z",
      "apogee_km": 471.5518723223404,
      "perigee_km": 469.8917089514907,
      "latitude_deg": -2.2751894674427834e-05,
      "longitude_deg": 143.62686070268654,
      "height_km": 471.4015006077113,
      "semi_major_axis_km": 6848.858790636916,
      "eccentricity": 0.0001212,
      "inclination_deg": 53.1604,
      "raan_deg": 175.5923,
      "arg_perigee_deg": 74.6925,
      "mean_anomaly_deg": 285.421,
      "mean_motion_rev_day": 15.31706107
    },
    {
      "epoch": "2026-04-19T11:50:43.141632Z",
      "apogee_km": 471.48144058533126,
      "perigee_km": 469.84224906981035,
      "latitude_deg": -5.3820758454212504e-05,
      "longitude_deg": 145.75890060221923,
      "height_km": 471.27222707880935,
      "semi_major_axis_km": 6848.798844827571,
      "eccentricity": 0.00011967,
      "inclination_deg": 53.1605,
      "raan_deg": 171.0361,
      "arg_perigee_deg": 69.3857,
      "mean_anomaly_deg": 290.7272,
      "mean_motion_rev_day": 15.31726217
    },
    {
      "epoch": "2026-04-20T09:46:10.496352Z",
      "apogee_km": 471.39817956315346,
      "perigee_km": 470.0584045347223,
      "latitude_deg": -3.357214782967305e-05,
      "longitude_deg": 171.7408385727094,
      "height_km": 471.6108157856219,
      "semi_major_axis_km": 6848.865292048938,
      "eccentricity": 9.781e-05,
      "inclination_deg": 53.1598,
      "raan_deg": 166.7824,
      "arg_perigee_deg": 88.5872,
      "mean_anomaly_deg": 271.5241,
      "mean_motion_rev_day": 15.31703926
    },
    {
      "epoch": "2026-04-21T20:13:18.755616Z",
      "apogee_km": 471.3569693430072,
      "perigee_km": 470.11869277355163,
      "latitude_deg": -2.766700327841467e-05,
      "longitude_deg": 6.859020405764249,
      "height_km": 471.47599571657764,
      "semi_major_axis_km": 6848.87483105828,
      "eccentricity": 9.04e-05,
      "inclination_deg": 53.1582,
      "raan_deg": 160.0999,
      "arg_perigee_deg": 74.9427,
      "mean_anomaly_deg": 285.1674,
      "mean_motion_rev_day": 15.31700726
    },
    {
      "epoch": "2026-04-22T19:42:44.082720Z",
      "apogee_km": 471.5968689607889,
      "perigee_km": 469.91615049350276,
      "latitude_deg": -4.086187846617279e-06,
      "longitude_deg": 8.982290807264546,
      "height_km": 471.48628208569005,
      "semi_major_axis_km": 6848.893509727146,
      "eccentricity": 0.0001227,
      "inclination_deg": 53.1591,
      "raan_deg": 155.5434,
      "arg_perigee_deg": 78.4064,
      "mean_anomaly_deg": 281.7075,
      "mean_motion_rev_day": 15.3169446
    },
    {
      "epoch": "2026-04-23T01:58:34.628736Z",
      "apogee_km": 471.6199497481475,
      "perigee_km": 469.87814104908284,
      "latitude_deg": -1.1491071253600512e-05,
      "longitude_deg": -86.45107869490576,
      "height_km": 471.47514941752354,
      "semi_major_axis_km": 6848.886045398615,
      "eccentricity": 0.00012716,
      "inclination_deg": 53.159,
      "raan_deg": 154.3279,
      "arg_perigee_deg": 78.5769,
      "mean_anomaly_deg": 281.5375,
      "mean_motion_rev_day": 15.31696964
    },
    {
      "epoch": "2026-04-24T09:17:47.131584Z",
      "apogee_km": 471.44913740059746,
      "perigee_km": 469.98074354456,
      "latitude_deg": -5.938196946221154e-05,
      "longitude_deg": 156.38561601153205,
      "height_km": 471.4686391764747,
      "semi_major_axis_km": 6848.8519404725785,
      "eccentricity": 0.0001072,
      "inclination_deg": 53.1583,
      "raan_deg": 148.253,
      "arg_perigee_deg": 78.6023,
      "mean_anomaly_deg": 281.5098,
      "mean_motion_rev_day": 15.31708405
    }
  ]
}